[
    {
        "Altitude(m)": 565420.4678648806,
        "Argument of Periapsis(deg)": 0.0,
        "Eccentricity": 0.0,
        "Inclination(deg)": 53.0,
        "Latitude(deg)": -37.33041677604957,
        "Longitude(deg)": 135.1724973384861,
        "Mean Anomaly(deg)": -49.09089999999994,
        "RAAN(deg)": 270.0,
        "Satellite Name": "Starlink Shell 1 1207",
        "Satellite Number": 1207,
        "Semi-Major Axis(m)": 6931778.249405717,
        "Time(s)": 0
    },
    {
        "Altitude(m)": 565251.4678724789,
        "Argument of Periapsis(deg)": 0.00034857847951123687,
        "Eccentricity": 0.0,
        "Inclination(deg)": 53.0,
        "Latitude(deg)": -36.91788420784171,
        "Longitude(deg)": 135.72075695200814,
        "Mean Anomaly(deg)": -48.46406879644327,
        "RAAN(deg)": 269.9994812299225,
        "Satellite Name": "Starlink Shell 1 1207",
        "Satellite Number": 1207,
        "Semi-Major Axis(m)": 6931778.249405717,
        "Time(s)": 10
    },
    {
        "Altitude(m)": 565081.5798070453,
        "Argument of Periapsis(deg)": 0.0006971569590224737,
        "Eccentricity": 0.0,
        "Inclination(deg)": 53.0,
        "Latitude(deg)": -36.50241780733548,
        "Longitude(deg)": 136.262698286343,
        "Mean Anomaly(deg)": -47.83723759288645,
        "RAAN(deg)": 269.9989624598451,
        "Satellite Name": "Starlink Shell 1 1207",
        "Satellite Number": 1207,
        "Semi-Major Axis(m)": 6931778.249405717,
        "Time(s)": 20
    },
    {
        "Altitude(m)": 564910.8691289346,
        "Argument of Periapsis(deg)": 0.0010457354385337105,
        "Eccentricity": 0.0,
        "Inclination(deg)": 53.0,
        "Latitude(deg)": -36.084090614796985,
        "Longitude(deg)": 136.79843997952105,
        "Mean Anomaly(deg)": -47.210406389329755,
        "RAAN(deg)": 269.9984436897676,
        "Satellite Name": "Starlink Shell 1 1207",
        "Satellite Number": 1207,
        "Semi-Major Axis(m)": 6931778.249405717,
        "Time(s)": 30
    },
    {
        "Altitude(m)": 564739.4015202275,
        "Argument of Periapsis(deg)": 0.0013943139180449475,
        "Eccentricity": 0.0,
        "Inclination(deg)": 53.0,
        "Latitude(deg)": -35.662974049927925,
        "Longitude(deg)": 137.3281007832065,
        "Mean Anomaly(deg)": -46.58357518577309,
        "RAAN(deg)": 269.9979249196901,
        "Satellite Name": "Starlink Shell 1 1207",
        "Satellite Number": 1207,
        "Semi-Major Axis(m)": 6931778.249405717,
        "Time(s)": 40
    },
    {
        "Altitude(m)": 564567.2428554305,
        "Argument of Periapsis(deg)": 0.0017428923975561844,
        "Eccentricity": 0.0,
        "Inclination(deg)": 53.0,
        "Latitude(deg)": -35.23913794096437,
        "Longitude(deg)": 137.85179843933636,
        "Mean Anomaly(deg)": -45.95674398221636,
        "RAAN(deg)": 269.99740614961263,
        "Satellite Name": "Starlink Shell 1 1207",
        "Satellite Number": 1207,
        "Semi-Major Axis(m)": 6931778.249405717,
        "Time(s)": 50
    },
    {
        "Altitude(m)": 564394.4591721132,
        "Argument of Periapsis(deg)": 0.002091470877067421,
        "Eccentricity": 0.0,
        "Inclination(deg)": 53.0,
        "Latitude(deg)": -34.812650554624035,
        "Longitude(deg)": 138.36965007984014,
        "Mean Anomaly(deg)": -45.32991277865969,
        "RAAN(deg)": 269.99688737953517,
        "Satellite Name": "Starlink Shell 1 1207",
        "Satellite Number": 1207,
        "Semi-Major Axis(m)": 6931778.249405717,
        "Time(s)": 60
    },
    {
        "Altitude(m)": 564221.1166414364,
        "Argument of Periapsis(deg)": 0.0024400493565786582,
        "Eccentricity": 0.0,
        "Inclination(deg)": 53.0,
        "Latitude(deg)": -34.383578626756545,
        "Longitude(deg)": 138.88177263600858,
        "Mean Anomaly(deg)": -44.70308157510293,
        "RAAN(deg)": 269.9963686094577,
        "Satellite Name": "Starlink Shell 1 1207",
        "Satellite Number": 1207,
        "Semi-Major Axis(m)": 6931778.249405717,
        "Time(s)": 70
    },
    {
        "Altitude(m)": 564047.2815386009,
        "Argument of Periapsis(deg)": 0.002788627836089895,
        "Eccentricity": 0.0,
        "Inclination(deg)": 53.0,
        "Latitude(deg)": -33.951987393561545,
        "Longitude(deg)": 139.3882817440922,
        "Mean Anomaly(deg)": -44.07625037154628,
        "RAAN(deg)": 269.99584983938024,
        "Satellite Name": "Starlink Shell 1 1207",
        "Satellite Number": 1207,
        "Semi-Major Axis(m)": 6931778.249405717,
        "Time(s)": 80
    },
    {
        "Altitude(m)": 563873.0202132552,
        "Argument of Periapsis(deg)": 0.0031372063156011316,
        "Eccentricity": 0.0,
        "Inclination(deg)": 53.0,
        "Latitude(deg)": -33.517940623255186,
        "Longitude(deg)": 139.88929217234767,
        "Mean Anomaly(deg)": -43.44941916798951,
        "RAAN(deg)": 269.9953310693027,
        "Satellite Name": "Starlink Shell 1 1207",
        "Satellite Number": 1207,
        "Semi-Major Axis(m)": 6931778.249405717,
        "Time(s)": 90
    },
    {
        "Altitude(m)": 563698.3990598497,
        "Argument of Periapsis(deg)": 0.0034857847951123688,
        "Eccentricity": 0.0,
        "Inclination(deg)": 53.0,
        "Latitude(deg)": -33.081500648072875,
        "Longitude(deg)": 140.38491825614744,
        "Mean Anomaly(deg)": -42.822587964432735,
        "RAAN(deg)": 269.99481229922526,
        "Satellite Name": "Starlink Shell 1 1207",
        "Satellite Number": 1207,
        "Semi-Major Axis(m)": 6931778.249405717,
        "Time(s)": 100
    },
    {
        "Altitude(m)": 563523.48448794,
        "Argument of Periapsis(deg)": 0.003834363274623606,
        "Eccentricity": 0.0,
        "Inclination(deg)": 53.0,
        "Latitude(deg)": -32.64272839650169,
        "Longitude(deg)": 140.87527282778876,
        "Mean Anomaly(deg)": -42.195756760876115,
        "RAAN(deg)": 269.99429352914785,
        "Satellite Name": "Starlink Shell 1 1207",
        "Satellite Number": 1207,
        "Semi-Major Axis(m)": 6931778.249405717,
        "Time(s)": 110
    },
    {
        "Altitude(m)": 563348.3428924918,
        "Argument of Periapsis(deg)": 0.004182941754134842,
        "Eccentricity": 0.0,
        "Inclination(deg)": 53.0,
        "Latitude(deg)": -32.201683425654196,
        "Longitude(deg)": 141.36046766627362,
        "Mean Anomaly(deg)": -41.568925557319346,
        "RAAN(deg)": 269.99377475907033,
        "Satellite Name": "Starlink Shell 1 1207",
        "Satellite Number": 1207,
        "Semi-Major Axis(m)": 6931778.249405717,
        "Time(s)": 120
    },
    {
        "Altitude(m)": 563173.0406241687,
        "Argument of Periapsis(deg)": 0.004531520233646079,
        "Eccentricity": 0.0,
        "Inclination(deg)": 53.0,
        "Latitude(deg)": -31.758423953697857,
        "Longitude(deg)": 141.84061395373251,
        "Mean Anomaly(deg)": -40.94209435376265,
        "RAAN(deg)": 269.9932559889928,
        "Satellite Name": "Starlink Shell 1 1207",
        "Satellite Number": 1207,
        "Semi-Major Axis(m)": 6931778.249405717,
        "Time(s)": 130
    },
    {
        "Altitude(m)": 562997.6439596429,
        "Argument of Periapsis(deg)": 0.0048800987131573164,
        "Eccentricity": 0.0,
        "Inclination(deg)": 53.0,
        "Latitude(deg)": -31.31300689225911,
        "Longitude(deg)": 142.3158212251884,
        "Mean Anomaly(deg)": -40.31526315020595,
        "RAAN(deg)": 269.9927372189154,
        "Satellite Name": "Starlink Shell 1 1207",
        "Satellite Number": 1207,
        "Semi-Major Axis(m)": 6931778.249405717,
        "Time(s)": 140
    },
    {
        "Altitude(m)": 562822.2190719065,
        "Argument of Periapsis(deg)": 0.005228677192668553,
        "Eccentricity": 0.0,
        "Inclination(deg)": 53.0,
        "Latitude(deg)": -30.865487878739433,
        "Longitude(deg)": 142.7861978369882,
        "Mean Anomaly(deg)": -39.68843194664925,
        "RAAN(deg)": 269.99221844883795,
        "Satellite Name": "Starlink Shell 1 1207",
        "Satellite Number": 1207,
        "Semi-Major Axis(m)": 6931778.249405717,
        "Time(s)": 150
    },
    {
        "Altitude(m)": 562646.8320006349,
        "Argument of Periapsis(deg)": 0.00557725567217979,
        "Eccentricity": 0.0,
        "Inclination(deg)": 53.0,
        "Latitude(deg)": -30.415921308477056,
        "Longitude(deg)": 143.25185144063863,
        "Mean Anomaly(deg)": -39.06160074309256,
        "RAAN(deg)": 269.9916996787604,
        "Satellite Name": "Starlink Shell 1 1207",
        "Satellite Number": 1207,
        "Semi-Major Axis(m)": 6931778.249405717,
        "Time(s)": 160
    },
    {
        "Altitude(m)": 562471.5486225975,
        "Argument of Periapsis(deg)": 0.0059258341516910265,
        "Eccentricity": 0.0,
        "Inclination(deg)": 53.0,
        "Latitude(deg)": -29.964360366698465,
        "Longitude(deg)": 143.71288794879638,
        "Mean Anomaly(deg)": -38.434769539535765,
        "RAAN(deg)": 269.99118090868296,
        "Satellite Name": "Starlink Shell 1 1207",
        "Satellite Number": 1207,
        "Semi-Major Axis(m)": 6931778.249405717,
        "Time(s)": 170
    },
    {
        "Altitude(m)": 562296.4346221379,
        "Argument of Periapsis(deg)": 0.006274412631202263,
        "Eccentricity": 0.0,
        "Inclination(deg)": 53.0,
        "Latitude(deg)": -29.510857060213475,
        "Longitude(deg)": 144.1694120188026,
        "Mean Anomaly(deg)": -37.80793833597907,
        "RAAN(deg)": 269.9906621386055,
        "Satellite Name": "Starlink Shell 1 1207",
        "Satellite Number": 1207,
        "Semi-Major Axis(m)": 6931778.249405717,
        "Time(s)": 180
    }
]